<h2>Jupiter XXVIII (Autonoe)</h2>
<pre>
Epoch 2019 Apr. 27.0 TT = JDT 2458600.5                 Williams
M 236.38213              (2000.0)            P               Q
n   0.50069148     Peri.  140.88991     -0.77603163     -0.63069398
a   0.1546650      Node   359.98973     -0.62434150     +0.76823632
e   0.3100677      Incl.  148.42843     +0.08928941     -0.10971807
P   1.97           H   15.5           P/d   719.01
From 47 observations 2001 Dec. 10-2018 Apr. 13, mean residual 0".42.
</pre>
 <p><hr><p>
<h2>Jupiter XXIX (Thyone)</h2>
<pre>
Epoch 2019 Apr. 27.0 TT = JDT 2458600.5                 Williams
M   5.57063              (2000.0)            P               Q
n   0.59146865     Peri.  133.46984     -0.88083524     +0.05712457
a   0.1384048      Node   304.36988     +0.04761864     +0.99834965
e   0.2168997      Incl.  145.29370     +0.47102203     +0.00589628
P   1.67           H   15.8           P/d   608.65
From 50 observations 2001 Dec. 11-2017 Mar. 26, mean residual 0".27.
</pre>
 <p><hr><p>
<h2>Jupiter XXX (Hermippe)</h2>
<pre>
Epoch 2020 Dec. 17.0 TT = JDT 2459200.5                 Pike
M 169.67605              (2000.0)            P               Q
n   0.59315203     Peri.  356.27211     +0.76149085     +0.55685435
a   0.1381428      Node    37.24213     +0.60796647     -0.79107370
e   0.1982520      Incl.  146.76001     +0.22474089     +0.25321065
P   1.66           H   15.54          P/d   606.93
From 78 observations 2001 Dec. 9-2017 Mar. 26, mean residual 0".21.
</pre>
 <p><hr><p>
<h2>Jupiter XXXI (Aitne)</h2>
<pre>
Epoch 2019 Apr. 27.0 TT = JDT 2458600.5                 Williams
M 334.09006              (2000.0)            P               Q
n   0.50559066     Peri.  187.04169     -0.21357791     -0.94781230
a   0.1536643      Node    84.50417     -0.88431617     +0.29054708
e   0.2052211      Incl.  166.24250     -0.41517392     -0.13127923
P   1.95           H   16.0           P/d   712.04
From 56 observations 2001 Dec. 9-2017 Mar. 26, mean residual 0".28.
</pre>
 <p><hr><p>
<h2>Jupiter XXXII (Eurydome)</h2>
<pre>
Epoch 2020 Dec. 17.0 TT = JDT 2459200.5                 Pike
M 169.85622              (2000.0)            P               Q
n   0.49820449     Peri.  306.06428     +0.13501994     +0.95639283
a   0.1551793      Node    31.50527     +0.99081741     -0.12844796
e   0.2975371      Incl.  150.28897     -0.00710430     +0.26232401
P   1.98           H   16.23          P/d   722.59
From 43 observations 2001 Dec. 9-2018 May 12, mean residual 0".26.
</pre>
 <p><hr><p>
<h2>Jupiter XXXIII (Euanthe)</h2>
<pre>
Epoch 2017 Feb. 16.0 TT = JDT 2457800.5                 MPC
M   9.93918              (2000.0)            P               Q
n   0.59720177     Peri.    4.05457     +0.53659454     -0.69330375
a   0.1375176      Node   305.75162     -0.78992367     -0.61319955
e   0.1399399      Incl.  143.64883     -0.29679437     +0.37857130
P   1.65           H   16.4           P/d   602.81
From 24 observations 2001 Dec. 11-2017 Mar. 26, mean residual 0".24.
</pre>
 <p><hr><p>
<h2>Jupiter XXXIV (Euporie)</h2>
<pre>
Epoch 2022 Jan. 21.0 TT = JDT 2459600.5                 Alexanders
M 348.59064              (2000.0)            P               Q
n   0.66847624     Peri.   92.56528     +0.77284338     +0.38830792
a   0.1275601      Node   114.99312     +0.06517252     -0.83532177
e   0.0946712      Incl.  146.37304     +0.63124136     -0.38917156
P   1.47           H   16.31          P/d   538.54
From 38 observations 2001 Dec. 11-2017 Mar. 26, mean residual 0".47.
</pre>
 <p><hr><p>
<h2>Jupiter XXXV (Orthosie)</h2>
<pre>
Epoch 2020 Dec. 17.0 TT = JDT 2459200.5                 Pike
M 333.61997              (2000.0)            P               Q
n   0.57206929     Peri.  261.21085     +0.75476790     +0.42770738
a   0.1415163      Node   287.90005     +0.57645991     -0.79431563
e   0.4837243      Incl.  148.48740     -0.31308048     -0.43142680
P   1.72           H   16.63          P/d   629.29
From 34 observations 2001 Dec. 11-2017 Mar. 26, mean residual 0".24.
</pre>
 <p><hr><p>
<h2>Jupiter XXXVI (Sponde)</h2>
<pre>
Epoch 2018 Mar. 23.0 TT = JDT 2458200.5                 MPC
M 180.99731              (2000.0)            P               Q
n   0.48987158     Peri.  110.44282     +0.01605352     +0.98334677
a   0.1569342      Node   202.02446     +0.63819110     +0.12929848
e   0.3136947      Incl.  151.13548     +0.76971060     -0.12771465
P   2.01           H   16.7           P/d   734.89
From 20 observations 2001 Dec. 9-2018 May 18, mean residual 0".30.
</pre>
 <p><hr><p>
<h2>Jupiter XXXVII (Kale)</h2>
<pre>
Epoch 2023 Feb. 25.0 TT = JDT 2460000.5                 Alexanders
M  75.32704              (2000.0)            P               Q
n   0.53425376     Peri.  129.70597     +0.89143193     +0.44065082
a   0.1481178      Node   155.29843     +0.29804707     -0.74586063
e   0.1849048      Incl.  165.34634     +0.34134596     -0.49951854
P   1.84           H   16.29          P/d   673.84
From 48 observations 2001 Dec. 9-2022 Sept. 2, mean residual 0".14.
</pre>
 <p><hr><p>
<h2>Jupiter XXXVIII (Pasithee)</h2>
<pre>
Epoch 2020 Dec. 17.0 TT = JDT 2459200.5                 Pike
M  71.98760              (2000.0)            P               Q
n   0.50624668     Peri.  331.51895     +0.22812491     +0.95307125
a   0.1535315      Node    49.07994     +0.93578890     -0.27106703
e   0.2097026      Incl.  164.72796     +0.26880878     +0.13482532
P   1.95           H   16.77          P/d   711.12
From 25 observations 2001 Dec. 11-2017 Mar. 26, mean residual 0".32.
</pre>
 <p><hr><p>
<h2>Jupiter XXXIX (Hegemone)</h2>
<pre>
Epoch 2023 Feb. 25.0 TT = JDT 2460000.5                 Alexanders
M  29.38563              (2000.0)            P               Q
n   0.48325057     Peri.  311.44877     -0.40919188     +0.81576604
a   0.1583643      Node    70.08711     +0.91156969     +0.34582652
e   0.4347541      Incl.  154.23016     +0.04003377     +0.46360520
P   2.04           H   15.92          P/d   744.96
From 37 observations 2002 Jan. 11-2022 Sept. 2, mean residual 0".18.
</pre>
 <p><hr><p>
<h2>Jupiter XL (Mneme)</h2>
<pre>
Epoch 2019 Apr. 27.0 TT = JDT 2458600.5                 Williams
M  42.92065              (2000.0)            P               Q
n   0.56910026     Peri.   88.77954     +0.84979664     -0.29938565
a   0.1420081      Node    71.49316     -0.42231089     -0.87922960
e   0.3775580      Incl.  152.77440     +0.31543490     -0.37057191
P   1.73           H   16.3           P/d   632.58
From 44 observations 2002 Jan. 10-2017 Mar. 26, mean residual 0".28.
</pre>
 <p><hr><p>
<h2>Jupiter XLI (Aoede)</h2>
<pre>
Epoch 2023 Feb. 25.0 TT = JDT 2460000.5                 Alexanders
M 234.99685              (2000.0)            P               Q
n   0.49422193     Peri.  176.71216     -0.23583244     +0.81395552
a   0.1560119      Node   280.88056     +0.87881595     +0.41182262
e   0.4898154      Incl.  147.27392     +0.41480789     -0.40972984
P   1.99           H   15.52          P/d   728.42
From 70 observations 2002 Jan. 11-2022 Sept. 27, mean residual 0".34.
</pre>
 <p><hr><p>
<h2>Jupiter XLII (Thelxinoe)</h2>
<pre>
Epoch 2022 Jan. 21.0 TT = JDT 2459600.5                 Alexanders
M 229.61004              (2000.0)            P               Q
n   0.57185822     Peri.    4.29995     -0.55078776     -0.68638794
a   0.1415511      Node   240.14719     -0.78117495     +0.22356676
e   0.1782547      Incl.  146.80255     -0.29393628     +0.69201843
P   1.72           H   16.30          P/d   629.53
From 56 observations 2002 Jan. 11-2021 Sept. 6, mean residual 0".36.
</pre>
 <p><hr><p>
<h2>Jupiter XLIII (Arche)</h2>
<pre>
Epoch 2019 Apr. 27.0 TT = JDT 2458600.5                 Williams
M 274.48183              (2000.0)            P               Q
n   0.48401998     Peri.  243.44167     -0.95461328     +0.24362744
a   0.1581965      Node    49.85414     +0.28183555     +0.92493949
e   0.3390126      Incl.  167.04682     -0.09634425     +0.29177492
P   2.04           H   16.2           P/d   743.77
From 40 observations 2002 Oct. 31-2018 May 12, mean residual 0".28.
</pre>
 <p><hr><p>
<h2>Jupiter XLIV (Kallichore)</h2>
<pre>
Epoch 2022 Jan. 21.0 TT = JDT 2459600.5                 Alexanders
M  89.92208              (2000.0)            P               Q
n   0.52314520     Peri.   81.90968     +0.80736123     +0.55225512
a   0.1502072      Node   115.66672     +0.40842465     -0.77720895
e   0.2823113      Incl.  166.67043     +0.42586048     -0.30159662
P   1.88           H   16.32          P/d   688.15
From 41 observations 2003 Feb. 6-2021 Sept. 6, mean residual 0".41.
</pre>
 <p><hr><p>
<h2>Jupiter XLV (Helike)</h2>
<pre>
Epoch 2020 Dec. 17.0 TT = JDT 2459200.5                 Alexanders
M 162.82249              (2000.0)            P               Q
n   0.60126815     Peri.  336.75245     -0.98546128     -0.09737536
a   0.1368969      Node   160.71445     +0.03464598     +0.68706977
e   0.1330333      Incl.  155.06774     -0.16633016     +0.72003692
P   1.64           H   16.04          P/d   598.73
From 46 observations 2003 Feb. 6-2018 May 12, mean residual 0".34.
</pre>
 <p><hr><p>
<h2>Jupiter XLVI (Carpo)</h2>
<pre>
Epoch 2020 Dec. 17.0 TT = JDT 2459200.5                 Pike
M 325.56774              (2000.0)            P               Q
n   0.78447975     Peri.   80.94387     +0.18502153     -0.98215726
a   0.1146527      Node   357.48536     +0.27231978     +0.08416705
e   0.4967217      Incl.   50.13693     +0.94425048     +0.16817560
P   1.26           H   16.18          P/d   458.90
From 43 observations 2003 Feb. 9-2018 May 12, mean residual 0".30.
</pre>
 <p><hr><p>
<h2>Jupiter XLVII (Eukelade)</h2>
<pre>
Epoch 2023 Feb. 25.0 TT = JDT 2460000.5                 Alexanders
M  51.16777              (2000.0)            P               Q
n   0.49602085     Peri.   39.02890     -0.40039131     -0.86874237
a   0.1556344      Node   283.65190     -0.89781170     +0.30826036
